AKEBONO (EXOS-D)        
1 19822U 89016A   20284.13575481  .00013411  00000-0  23370-3 0  9994
2 19822  75.0057 286.8903 1708524 119.3275 258.9272 12.13131890 53483
HST                     
1 20580U 90037B   20283.42156434  .00000501  00000-0  19486-4 0  9996
2 20580  28.4699 285.8430 0002452 235.2912 240.8734 15.09446311473288
POLAR                   
1 23802U 96013A   20282.90689798  .00000190  00000-0  00000-0 0  9994
2 23802  78.7091 248.3815 6217807 279.5408  19.4067  1.29846443117889
SWAS                    
1 25560U 98071A   20284.48907283  .00000080  00000-0  16055-4 0  9999
2 25560  69.8974  94.2050 0007745 189.7690 170.3316 14.93916259186427
ORSTED                  
1 25635U 99008B   20284.46982231  .00000068  00000-0  24045-4 0  9991
2 25635  96.4473 281.6520 0138232 344.2172  15.4738 14.48227232141539
CXO                     
1 25867U 99040B   20285.52478140  .00000966  00000-0  00000+0 0  9998
2 25867  60.4631 263.8606 7922527 226.9837   0.4957  0.37806731 20633
XMM-NEWTON              
1 25989U 99066A   20285.22445463  .00000122  00000-0  00000+0 0  9994
2 25989  71.0673 318.0316 6959133  92.3754 359.8893  0.50135253 26969
TERRA                   
1 25994U 99068A   20294.49228242  .00000097  00000-0  31629-4 0  9992
2 25994  98.2021   6.9712 0001318  73.4090 286.7409 14.57116909108529
CLUSTER II-FM7 (SAMBA)  
1 26410U 00041A   20286.96222401  .00000168  00000-0  00000+0 0  9996
2 26410 132.1151 342.5359 4538508 186.2236   0.6688  0.44206379 22862
CLUSTER II-FM6 (SALSA)  
1 26411U 00041B   20284.79032667 -.00000021  00000-0  00000-0 0  9999
2 26411 132.2833 343.9185 5886270 191.7243   0.8043  0.44249346 11142
CLUSTER II-FM5 (RUMBA)  
1 26463U 00045A   20287.02363163  .00000117  00000-0  00000+0 0  9991
2 26463 135.9213 343.6827 5485884 191.6177   0.7091  0.44214245 23440
CLUSTER II-FM8 (TANGO)  
1 26464U 00045B   20286.95617583  .00000168  00000-0  00000+0 0  9997
2 26464 132.1180 342.5325 4535931 186.2158   0.6616  0.44219219 58784
ODIN                    
1 26702U 01007A   20284.10657382 -.00000167  00000-0 -67760-5 0  9990
2 26702  97.5520 299.1432 0009807 229.6284 130.4089 15.08149295 73496
TIMED                   
1 26998U 01055B   20284.14789521  .00000105  00000-0  15396-4 0  9992
2 26998  74.0722  64.8669 0000350 218.0423 142.0733 14.88220333 21608
RHESSI                  
1 27370U 02004A   20284.17859178  .00001839  00000-0  60303-4 0  9994
2 27370  38.0320 198.3734 0012374 200.2470 159.7812 15.33216227 31946
INTEGRAL                
1 27540U 02048A   20281.20027355  .00000368  00000-0  00000+0 0  9995
2 27540  57.2220 104.7656 8983679 294.7318   1.9682  0.37571797 18811
CORIOLIS                
1 27640U 03001A   20284.49710156  .00000001  00000-0  21441-4 0  9999
2 27640  98.7273 292.1833 0015190  67.9077  46.2037 14.19048620919733
SORCE                   
1 27651U 03004A   20283.85365039  .00000068  00000-0  21240-4 0  9999
2 27651  39.9962  52.0355 0021183 103.5256 256.7895 14.89157076961295
MOST                    
1 27843U 03031D   20284.07534096 -.00000006  00000-0  17703-4 0  9990
2 27843  98.7116 289.7118 0010964 120.0501 240.1764 14.20618713895877
SCISAT 1                
1 27858U 03036A   20284.45325085  .00000016  00000-0  73062-5 0  9990
2 27858  73.9326 318.0071 0006975 147.6182 212.5422 14.77303696924636
SWIFT                   
1 28485U 04047A   20284.41610482  .00000871  00000-0  28981-4 0  9992
2 28485  20.5572 300.0432 0011366  71.5741 288.5928 15.04697358870830
FORMOSAT-3 FM6          
1 29047U 06011A   20284.23101991  .00000103  00000-0  56593-4 0  9998
2 29047  71.9779 235.7175 0051865 225.6642 134.0239 14.28751080757711
FORMOSAT-3 FM1          
1 29048U 06011B   20284.04242750  .00000065  00000-0  41808-4 0  9997
2 29048  71.9655 146.8838 0043824 184.7414 175.3314 14.28720903760177
FORMOSAT-3 FM5          
1 29049U 06011C   20284.17707686  .00000030  00000-0  28005-4 0  9992
2 29049  72.0202 318.9079 0036068 211.0259 148.8748 14.28800348755981
FORMOSAT-3 FM3          
1 29050U 06011D   20284.47119380  .00000157  00000-0  43333-4 0  9996
2 29050  72.0141  92.6439 0048176 116.5621 244.0482 14.58955267773209
FORMOSAT-3 FM4          
1 29051U 06011E   20284.17473700  .00000109  00000-0  57985-4 0  9998
2 29051  72.0054 220.7443 0066216  86.4084 274.4622 14.28834359758576
FORMOSAT-3 FM2          
1 29052U 06011F   20284.44592072  .00000052  00000-0  36497-4 0  9995
2 29052  72.0328 294.7414 0039687 169.6913 190.5047 14.28940033756942
CLOUDSAT                
1 29107U 06016A   20284.17929022  .00000091  00000-0  27409-4 0  9996
2 29107  98.2424 231.1150 0001847  66.4299 293.7096 14.62260359769263
CALIPSO                 
1 29108U 06016B   20284.17784797  .00000128  00000-0  34625-4 0  9994
2 29108  98.2407 230.8761 0001301  84.3170 275.8180 14.62446684769106
HINODE (SOLAR-B)        
1 29479U 06041A   20284.02487712  .00000053  00000-0  18963-4 0  9998
2 29479  98.1591 294.9168 0017332  12.6042 347.5591 14.65089804750669
SJ-6C                   
1 29505U 06046A   20284.52051223  .00000131  00000-0  17356-4 0  9994
2 29505  97.8144 297.8368 0005269  27.4067 332.7439 14.94925500760808
SJ-6D                   
1 29506U 06046B   20284.50548604 -.00000478  00000-0 -39954-4 0  9991
2 29506  97.8345 297.9803 0003463  93.4776 266.6845 14.93532226760344
AGILE                   
1 31135U 07013A   20283.58299638  .00002516  00000-0  41959-4 0  9995
2 31135   2.4686  21.3696 0011706 161.9633 198.0837 15.32580696382196
AIM                     
1 31304U 07015A   20284.19803816  .00000731  00000-0  44479-4 0  9999
2 31304  97.8897 171.1739 0004623 343.5337  16.5742 15.13761618738049
FGRST (GLAST)           
1 33053U 08029A   20283.99536882  .00000494  00000-0  11398-4 0  9991
2 33053  25.5837  40.3261 0011995 253.1908 106.7312 15.11380141680688
WISE                    
1 36119U 09071A   20284.17197629  .00000694  00000-0  26218-4 0  9997
2 36119  97.3179 318.8488 0002440  18.2858 341.8470 15.30275319601347
SDO                     
1 36395U 10005A   20284.10631424 -.00000052  00000-0  00000+0 0  9996
2 36395  30.5130 119.3787 0001016  30.5412 165.8730  1.00274401 39213
CRYOSAT 2               
1 36508U 10013A   20284.21342651  .00000020  00000-0  42040-5 0  9994
2 36508  92.0204 135.5405 0006335 159.2065 200.9401 14.51905263556928
X-SAT                   
1 37389U 11015C   20284.50992645 -.00000015  00000-0  11710-4 0  9995
2 37389  98.4223 335.2045 0013315 318.0612  41.9549 14.24382763492665
GCOM-W1 (SHIZUKU)       
1 38337U 12025A   20284.43665823  .00000053  00000-0  21765-4 0  9990
2 38337  98.2051 222.7481 0001481  16.1070  94.6063 14.57147587446748
NUSTAR                  
1 38358U 12031A   20283.97491507  .00000984  00000-0  29070-4 0  9994
2 38358   6.0260 157.1157 0011085 102.4091 257.7279 14.88353755453103
NEOSSAT                 
1 39089U 13009D   20284.50070320  .00000036  00000-0  28195-4 0  9993
2 39089  98.4587 124.0077 0010440 310.0352  49.9916 14.34526100399056
IRIS                    
1 39197U 13033A   20284.09906647  .00000096  00000-0  20169-4 0  9993
2 39197  97.9617 104.9566 0026813 217.0583 142.8777 14.78758437393046
HISAKI (SPRINT-A)       
1 39253U 13049A   20284.13262623  .00000082  00000-0  25460-4 0  9991
2 39253  29.7208 331.5278 0137240 110.9215 250.6105 13.55229262349571
CASSIOPE                
1 39265U 13055A   20284.44133402  .00003539  00000-0  99795-4 0  9999
2 39265  80.9699 194.1746 0657547 326.7445  29.3973 14.30104075364219
STSAT-3                 
1 39422U 13066G   20284.08960436 -.00000240  00000-0 -19414-4 0  9999
2 39422  97.5027 311.0597 0023248 168.1776 192.0007 14.89860984374205
SWARM B                 
1 39451U 13067A   20284.21291299  .00000387  00000-0  15494-4 0  9995
2 39451  87.7517 245.4249 0003824 103.8182 256.3490 15.21798234367411
SWARM A                 
1 39452U 13067B   20284.18876201  .00001203  00000-0  24736-4 0  9991
2 39452  87.3564  88.9404 0002220  78.4877 281.6630 15.44765400386894
SWARM C                 
1 39453U 13067C   20284.18867062  .00001203  00000-0  24732-4 0  9993
2 39453  87.3416  89.6654 0002221  78.5684 281.5823 15.44766074386851
BRITE-CA1 (TORONTO)     
1 40020U 14033L   20284.09645849  .00000077  00000-0  21255-4 0  9991
2 40020  97.7321 105.7560 0088691  67.2278 293.8268 14.66663711337579
OCO 2                   
1 40059U 14035A   20284.13772275  .00000036  00000-0  17936-4 0  9990
2 40059  98.1985 223.1930 0001145  82.5879 277.5449 14.57117340333730
BRITE-PL2 (HEWELIUSZ)   
1 40119U 14049B   20284.30922078  .00000116  00000-0  20120-4 0  9997
2 40119  97.8941  15.3951 0018821  93.8276 266.5091 14.84540299332827
RESURS P2               
1 40360U 14087A   20284.48523941  .00000845  00000-0  28240-4 0  9992
2 40360  97.2420  11.0415 0010594 125.4552   2.9181 15.33693481323949
MMS 1                   
1 40482U 15011A   20284.20833333 -.00000556  00000-0  00000+0 0  9993
2 40482  30.5906 119.4398 8527122  24.6951  26.7441  0.28548150 11540
MMS 2                   
1 40483U 15011B   20284.20833333 -.00000556  00000-0  00000+0 0  9994
2 40483  30.5890 119.4498 8526479  24.6826  26.7541  0.28548148 11525
MMS 3                   
1 40484U 15011C   20284.20833333 -.00000556  00000-0  00000+0 0  9995
2 40484  30.6021 119.4381 8527282  24.6878  26.7525  0.28531859 11527
MMS 4                   
1 40485U 15011D   20284.20833333 -.00000556  00000-0  00000+0 0  9996
2 40485  30.5895 119.4500 8527814  24.6829  26.7515  0.28548143 11529
ASTROSAT                
1 40930U 15052A   20284.07746898  .00000759  00000-0  17564-4 0  9992
2 40930   5.9966 245.2918 0008098  90.0746 270.0310 14.76335753272182
DAMPE                   
1 41173U 15078A   20284.54774898  .00000077  00000-0  60832-5 0  9993
2 41173  97.3328 275.9419 0012815 199.6412 276.1699 15.23904926267923
PISAT                   
1 41784U 16059B   20284.15275806  .00000060  00000-0  20646-4 0  9993
2 41784  98.0059 337.4571 0030877 313.6145  46.2496 14.63543343215684
HXMT (HUIYAN)           
1 42758U 17034A   20284.05933321  .00000235  00000-0  28362-4 0  9998
2 42758  43.0175 127.2461 0010550  20.9357 115.3431 15.08910524183182
FLYING LAPTOP           
1 42831U 17042G   20284.07689701  .00000169  00000-0  22328-4 0  9993
2 42831  97.5023 160.5243 0012527 262.6069  97.3748 14.91164344176374
PICSAT                  
1 43132U 18004X   20284.17663551  .00001326  00000-0  56499-4 0  9995
2 43132  97.4375 354.7724 0009834  20.0998 340.0625 15.24699362152537
ZHANGZHENG-1 (CSES)     
1 43194U 18015C   20284.52712176 -.00038513  00000-0 -17392-2 0  9999
2 43194  97.4491  48.1987 0016288  66.7796  63.4377 15.20971368149152
ICON                    
1 44628U 19068A   20284.42833580  .00000492  00000-0  27921-4 0  9997
2 44628  26.9913   3.3958 0019074 138.2646 221.9370 14.91746456 54601
